{
    "links": {
        "self": "http://www.neowsapp.com/rest/v1/neo/3713943?api_key=iIulBulltgU6a56xZRHN4H3l9WmuAYTsLGpBGhQ2"
    },
    "id": "3713943",
    "neo_reference_id": "3713943",
    "name": "(2015 FX33)",
    "designation": "2015 FX33",
    "nasa_jpl_url": "http://ssd.jpl.nasa.gov/sbdb.cgi?sstr=3713943",
    "absolute_magnitude_h": 25.7,
    "estimated_diameter": {
        "kilometers": {
            "estimated_diameter_min": 0.0192555078,
            "estimated_diameter_max": 0.0430566244
        },
        "meters": {
            "estimated_diameter_min": 19.2555078188,
            "estimated_diameter_max": 43.0566244241
        },
        "miles": {
            "estimated_diameter_min": 0.0119648141,
            "estimated_diameter_max": 0.0267541378
        },
        "feet": {
            "estimated_diameter_min": 63.1742402722,
            "estimated_diameter_max": 141.2618956756
        }
    },
    "is_potentially_hazardous_asteroid": false,
    "close_approach_data": [
        {
            "close_approach_date": "2001-02-06",
            "close_approach_date_full": "2001-Feb-06 16:36",
            "epoch_date_close_approach": 981477360000,
            "relative_velocity": {
                "kilometers_per_second": "16.2575975167",
                "kilometers_per_hour": "58527.3510600433",
                "miles_per_hour": "36366.6198850586"
            },
            "miss_distance": {
                "astronomical": "0.3738347076",
                "lunar": "145.4217012564",
                "kilometers": "55924875.989032812",
                "miles": "34750106.5557323256"
            },
            "orbiting_body": "Earth"
        },
        {
            "close_approach_date": "2015-03-26",
            "close_approach_date_full": "2015-Mar-26 18:47",
            "epoch_date_close_approach": 1427395620000,
            "relative_velocity": {
                "kilometers_per_second": "5.5357305232",
                "kilometers_per_hour": "19928.6298835449",
                "miles_per_hour": "12382.8756073616"
            },
            "miss_distance": {
                "astronomical": "0.035433228",
                "lunar": "13.783525692",
                "kilometers": "5300735.43602436",
                "miles": "3293724.267921768"
            },
            "orbiting_body": "Earth"
        },
        {
            "close_approach_date": "2022-05-02",
            "close_approach_date_full": "2022-May-02 00:01",
            "epoch_date_close_approach": 1651449660000,
            "relative_velocity": {
                "kilometers_per_second": "11.0385291847",
                "kilometers_per_hour": "39738.7050650521",
                "miles_per_hour": "24692.0859333375"
            },
            "miss_distance": {
                "astronomical": "0.2054946958",
                "lunar": "79.9374366662",
                "kilometers": "30741568.787977946",
                "miles": "19101925.0768138148"
            },
            "orbiting_body": "Earth"
        },
        {
            "close_approach_date": "2029-05-19",
            "close_approach_date_full": "2029-May-19 11:26",
            "epoch_date_close_approach": 1873884360000,
            "relative_velocity": {
                "kilometers_per_second": "18.7796454653",
                "kilometers_per_hour": "67606.7236750494",
                "miles_per_hour": "42008.1889413106"
            },
            "miss_distance": {
                "astronomical": "0.4628172504",
                "lunar": "180.0359104056",
                "kilometers": "69236474.859096648",
                "miles": "43021550.5416358224"
            },
            "orbiting_body": "Earth"
        }
    ],
    "orbital_data": {
        "orbit_id": "8",
        "orbit_determination_date": "2017-04-06 08:34:59",
        "first_observation_date": "2015-03-15",
        "last_observation_date": "2015-03-25",
        "data_arc_in_days": 10,
        "observations_used": 29,
        "orbit_uncertainty": "7",
        "minimum_orbit_intersection": ".0345511",
        "jupiter_tisserand_invariant": "4.004",
        "epoch_osculation": "2459000.5",
        "eccentricity": ".4162842250920632",
        "semi_major_axis": "1.765480047395569",
        "inclination": "3.975396634053276",
        "ascending_node_longitude": "355.96223187",
        "orbital_period": "856.8260216728287",
        "perihelion_distance": "1.030538553950006",
        "perihelion_argument": "186.3382641505082",
        "aphelion_distance": "2.500421540841133",
        "perihelion_time": "2458819.102637443172",
        "mean_anomaly": "76.21506451562185",
        "mean_motion": ".4201553067881297",
        "equinox": "J2000",
        "orbit_class": {
            "orbit_class_type": "AMO",
            "orbit_class_description": "Near-Earth asteroid orbits similar to that of 1221 Amor",
            "orbit_class_range": "1.017 AU < q (perihelion) < 1.3 AU"
        }
    },
    "is_sentry_object": false
}